full_name,a,e,i,om,w,q,ad,per_y,data_arc,condition_code,n_obs_used,n_del_obs_used,n_dop_obs_used,H
"171636 (2000 EP64)",2.177048036391885,.1290069731359081,2.021132143399313,210.2642442469511,40.33483567129792,1.896193658845496,2.457902413938275,3.21225652522,6892,0,224,,,17.4
"171674 (2000 QA37)",2.217568643646313,.2170612176618023,2.737783184260727,188.7404251440453,180.4213049072403,1.736220493607813,2.698916793684813,3.30235540059713,7355,0,434,,,16.6
"171675 (2000 QN58)",2.213109878828206,.2061909845020786,6.295209536846232,16.86308454701322,326.8476204442037,1.756786574101342,2.66943318355507,3.2924005641124,6381,0,253,,,16.8
"171676 (2000 QX58)",2.189370812550422,.2030892853263756,3.746937246807858,73.91751806450323,276.868777077097,1.74473305891513,2.634008566185713,3.23956865551162,9491,0,278,,,17.0
"171682 (2000 RL31)",2.231033925755041,.1844660313865125,4.094416757360167,290.6324117394577,56.78050641365176,1.819483951582337,2.642583899927745,3.33247932565821,20879,0,331,,,16.5
"171684 (2000 RN53)",2.246204104709891,.1915376184462316,5.080150143826181,240.3377139678831,112.8079440512701,1.815971519949608,2.676436689470173,3.36652641981323,6416,0,576,,,16.2
"171685 (2000 RV90)",2.238434756016523,.1634055154743947,5.215422661807397,246.2731228236426,90.5533169004094,1.872662170853842,2.604207341179203,3.34907491986022,9911,0,409,,,16.4
"171686 (2000 SZ12)",2.216703240253846,.2178797349500044,3.777573267067643,185.0422336277892,137.4268309479011,1.733728525804522,2.69967795470317,3.30042247910436,8955,0,342,,,16.9
"171691 (2000 SG49)",2.211808851714852,.1669639418162546,3.847383085540996,254.0276807595387,71.02490959122191,1.842516527288456,2.581101176141247,3.28949772170776,6292,0,191,,,17.2
"171703 (2000 SC293)",2.22698964933414,.1511049246067992,6.735490426808304,306.8998981496321,53.05731735840703,1.890480546271382,2.563498752396897,3.32342207346867,20916,0,415,,,16.1
"171706 (2000 SE308)",2.256053289365056,.1909191287314623,6.070675861902454,3.47363963566354,23.86405890685205,1.82532956098773,2.686777017742382,3.38869305718748,6323,0,517,,,16.6
"171710 (2000 TD51)",2.227937227109374,.1572672462468037,8.968797110318071,83.89705207503135,222.8402799428147,1.877555674591143,2.578318779627605,3.32554345907934,5761,0,316,,,16.4
"171712 (2000 UO8)",2.237684178458679,.1727013600065428,6.998886878997398,46.74020904574169,321.8391061236557,1.851233077573741,2.624135279343616,3.34739057565518,6327,0,460,,,16.3
"171718 (2000 UQ69)",2.233557912944807,.1242683815089232,3.298398348775237,263.6888724461611,118.5107281281633,1.955997286096708,2.511118539792907,3.33813601703303,6329,0,352,,,16.4
"171744 (2000 WU195)",2.324890353460075,.257262765051381,3.976515965800491,335.9105061244377,65.91513747715182,1.726782632687654,2.922998074232497,3.54496470478536,6068,0,305,,,16.6
"171746 (2000 XT18)",2.280941134847973,.05876307903622478,9.137290926612396,340.2088154579773,28.74081005063781,2.146906010663925,2.414976259032021,3.44492140770855,6287,0,519,,,15.7
"171761 (2000 YR98)",2.345198418551583,.08603875444763717,2.49754653593222,237.2142612634444,225.6191316364942,2.143420467686836,2.546976369416329,3.59151422788989,7121,0,354,,,16.6
"171776 (2001 BU21)",2.282861968179945,.1812038782469335,23.69134769057514,99.52526521586216,14.52608271673447,1.869198526043311,2.696525410316578,3.44927389581762,6301,0,450,,,15.7
"171788 (2001 CR3)",2.35097832075225,.2207262374529016,6.150264481366791,358.4525599602781,79.46848029910564,1.832055721679265,2.869900919825235,3.60479970460581,5582,0,433,,,16.2
"171791 (2001 CZ16)",2.370501897232701,.2598903185232857,13.79644135253478,334.5158952870012,36.05918471762509,1.754431404100841,2.98657239036456,3.6497966071611,5570,0,371,,,15.8
"171817 (2001 EB22)",2.440023474687386,.1822887052179608,8.33941744330709,243.1132127718851,257.8919899388308,1.995234754785193,2.884812194589579,3.81152883034135,5513,0,235,,,16.3
"172085 (2002 CV97)",2.254299719128656,.2157045381833249,6.932972423402784,353.582405931928,309.3107364414792,1.76803703928721,2.740562398970102,3.38474291350275,5695,0,456,,,16.1
"172087 (2002 CS170)",2.325405171258792,.1261275475078134,3.473307355222756,53.06568246321596,188.1677767132957,2.032107520045934,2.61870282247165,3.54614225190119,5651,0,393,,,16.4
"172096 (2002 EP90)",2.341116424879565,.2366653914794219,5.667443271076394,12.48811484066026,297.1081019085117,1.787055189686538,2.895177660072592,3.58214135972963,20582,0,484,,,16.0
"172106 (2002 GH24)",2.303643428784492,.1365101940008108,1.749806217342186,193.530963356085,94.3702461387104,1.989172617412429,2.618114240156557,3.49648032110584,5709,0,459,,,16.6
"172113 (2002 GA93)",2.276287095793678,.187730286499274,5.594744590634895,221.5654713835795,156.2228324077746,1.848959067145731,2.703615124441626,3.43438324602622,6233,0,665,,,16.1
"172118 (2002 GN114)",2.360432332233499,.1789059768455781,6.894700618528088,63.34513573250374,215.5593388740735,1.938136880057379,2.782727784409619,3.62656557284434,5582,0,421,,,16.0
"172132 (2002 JE34)",2.393357812038305,.2066464169986946,1.700338572427357,94.38120064692119,219.3659640731629,1.898778995584754,2.887936628491856,3.70270957693303,5526,0,320,,,16.8
"172134 (2002 JN40)",2.320770011192305,.1865659119568604,5.092342613843719,245.5251127945788,90.29105065344065,1.88779343761208,2.75374658477253,3.53554490936715,7298,0,726,,,15.8
"172141 (2002 JT79)",2.331323217747114,.1576491185689095,6.859543637200364,37.27758219298772,317.4875219044681,1.963792167370047,2.69885426812418,3.55968800827957,7797,0,537,,,16.0
"172143 (2002 JW80)",2.29520372847057,.1489922410234261,2.03465821661481,332.8502251187392,10.23821795543017,1.953236181360416,2.637171275580724,3.47728320833693,5787,0,591,,,16.3
"172158 (2002 NS28)",2.445271771098825,.1272102466732387,.7982926722881023,258.5838778185594,86.08870811401992,2.134208145914236,2.756335396283414,3.82383288368835,8921,0,368,,,16.7
"172159 (2002 NJ30)",2.398659658634584,.1722511718602188,6.598250469434583,103.966121443987,127.6984837282637,1.985487721540945,2.811831595728223,3.71501993812122,9104,0,332,,,16.2
"172425 Taliajacobi (2003 OJ18)",2.362687470850971,.3585958511103453,21.34824646091175,356.6125964288073,78.95419066067205,1.515437546333418,3.209937395368525,3.63176400262749,5740,0,437,,,15.3
"172437 (2003 QO37)",2.271822018467576,.1754782441797132,.7585483415591792,226.8362652096448,51.65337929691695,1.873166679578073,2.670477357357078,3.42428307173571,6145,0,283,,,17.2
"172439 (2003 QP40)",2.299789872702728,.1385454293099009,6.652428520829861,318.5409314605508,354.23273625,1.981164497466566,2.61841524793889,3.48771057415403,7627,0,258,,,16.6
"172450 (2003 QR78)",2.34197429491618,.2518699001955237,3.99971984965713,253.7520921701905,108.6620575370445,1.752101462995159,2.9318471268372,3.58411048002114,14096,0,459,,,16.0
"172454 (2003 QR101)",2.270267299092108,.07681239174213658,7.246215832468522,87.58074984808943,305.9065667599959,2.095882637954882,2.444651960229333,3.42076856558786,6267,0,605,,,16.2
"172455 (2003 QT107)",2.290745462443063,.1983514697192567,4.087238019571515,269.475323298597,40.08760763931745,1.836372733214763,2.745118191671362,3.46715657593554,5206,0,341,,,16.8
"172457 (2003 RU1)",2.303829455226767,.2351745111933101,2.203564545646906,70.87611586721097,260.3253979436557,1.762027489221062,2.845631421232472,3.4969038573078,6712,0,341,,,17.0
"172472 (2003 SM52)",2.37096968703255,.1790089859197852,3.244211376763252,92.38859960810602,253.9407333138186,1.946544807710303,2.795394566354797,3.65087702510182,6444,0,298,,,16.5
"172479 (2003 SL95)",2.29285580767527,.1779371969141894,5.002898326276552,324.20604413,53.24412968832664,1.884871472329113,2.700840143021427,3.47194884708508,7723,0,368,,,17.0
"172491 (2003 SF142)",2.288747622695062,.1820722899358519,6.996205941889406,258.269282487786,38.13674588595981,1.872030101945735,2.705465143444389,3.4626218210933,6771,0,281,,,16.5
"172504 (2003 SW190)",2.33950800976253,.08241361648373115,1.075053342200585,127.9766359157025,327.8766526708705,2.146700693885344,2.532315325639717,3.5784504408064,20738,0,327,,,16.9
"172510 (2003 ST224)",2.381235968771111,.1645043523775036,5.503573198030217,68.09390624501278,263.3841691322742,1.989512287870402,2.77295964967182,3.6746150822437,8981,0,333,,,16.5
"172519 (2003 SQ255)",2.376182842616132,.1619556175738555,2.341604802512158,4.150435707682209,72.33440798288355,1.991346682871837,2.761019002360428,3.66292465787239,8479,0,336,,,16.8
"172525 Adamblock (2003 TY1)",2.347590921607094,.01945075529664012,3.795003438376082,25.94230737995903,10.43935249404236,2.3019285050543,2.393253338159887,3.59701156651468,7124,0,539,,,16.2
"172526 (2003 TN3)",2.350259072871471,.2061581470006317,6.269131760426595,58.8577131690093,25.66610462701914,1.865734017436866,2.834784128306077,3.60314557648478,6066,0,322,,,16.9
"172530 (2003 TF50)",2.30028587286658,.1632559908812836,5.569373748437091,57.03545939532371,230.2062443267063,1.924750423381528,2.675821322351632,3.48883893699259,5713,0,459,,,16.1
"172534 (2003 UT11)",2.313166278709616,.267711572457877,10.81881493100483,80.33849371796542,239.1360044483539,1.693904896879729,2.932427660539503,3.51818344821076,6743,0,298,,,16.8
"172535 (2003 UV21)",2.343694759802266,.2395162425830048,9.247793038171807,275.5887367873384,68.29976857769981,1.782341797172949,2.905047722431582,3.58806065269239,5108,0,333,,,16.0
"172544 (2003 UX52)",2.349006430468317,.1909848198188711,8.815006611737369,347.5767400160343,6.925868985370943,1.900381860591956,2.797631000344678,3.60026535051086,6491,0,456,,,15.8
"172556 (2003 UZ112)",2.386930560036955,.2381313739546401,8.282715851957432,72.40665049050033,235.4855775330003,1.818527506241036,2.955333613832873,3.68780441127817,6502,0,258,,,16.5
"172566 (2003 UH165)",2.361736287533502,.2688410333828539,4.329044224645233,211.3749359561391,89.38708896821444,1.726804663415211,2.996667911651794,3.62957108100445,6074,0,333,,,16.5
